0 AMC-5 (GE-5)
1 25516U 98063B   13283.36609605  .00000000  00000-0  10000-3 0  3232
2 25516 002.8008 069.7532 0005356 084.2536 276.0354 01.00265749 54749
0 AMC-5 (GE-5)
1 25516U 98063B   13283.36609722  .00000000  00000-0  10000-3 0  3243
2 25516 002.8014 069.7602 0005727 078.6043 281.6879 01.00265889 54745
0 AMC-5 (GE-5)
1 25516U 98063B   13283.37816492 -.00000242  00000-0  10000-3 0  3236
2 25516 002.8004 069.7958 0004419 089.6437 274.9903 01.00272015 54814
0 AMC-5 (GE-5)
1 25516U 98063B   13284.48596152 -.00000245  00000-0  10000-3 0  3241
2 25516 002.8029 069.7815 0004850 090.5138 314.0361 01.00271681 54824
0 AMC-5 (GE-5)
1 25516U 98063B   13287.36510021 -.00000249  00000-0  10000-3 0  3257
2 25516 002.8091 069.7508 0005092 089.1020 274.7990 01.00270787 54854
0 AMC-5 (GE-5)
1 25516U 98063B   13290.35152339 -.00000246  00000-0  10000-3 0  3262
2 25516 002.8152 069.7134 0005105 089.1430 272.8339 01.00269969 54886
0 AMC-5 (GE-5)
1 25516U 98063B   13294.33501027 -.00000240  00000-0  10000-3 0  3282
2 25516 002.8255 069.7097 0004810 107.3691 252.6065 01.00272898 54913
0 AMC-5 (GE-5)
1 25516U 98063B   13295.51918417 -.00000238  00000-0  10000-3 0  3296
2 25516 002.8284 069.7001 0004760 106.9475 320.5137 01.00272861 54936
